H1 CPF  1  DGF 2022 01 24 16  5243 larets     NONE      
H2   304206 5557    27944 2022 01 17 00 00 00 2022 01 24 00 00 00    30 1 1  0 0 0
H5  0.0650
H9
10 0 59598  10800.000000  0      -6832201.624       1665881.641        726688.743
10 0 59598  10830.000000  0      -6840049.461       1716857.089        504687.764
10 0 59598  10860.000000  0      -6840759.508       1766114.780        282172.469
10 0 59598  10890.000000  0      -6834339.857       1813573.969         59369.635
10 0 59598  10920.000000  0      -6820806.211       1859155.812       -163493.739
10 0 59598  10950.000000  0      -6800181.853       1902783.477       -386190.672
10 0 59598  10980.000000  0      -6772497.609       1944382.252       -608494.434
10 0 59598  11010.000000  0      -6737791.797       1983879.657       -830178.778
10 0 59598  11040.000000  0      -6696110.181       2021205.544      -1051018.180
10 0 59598  11070.000000  0      -6647505.904       2056292.205      -1270788.061
10 0 59598  11100.000000  0      -6592039.417       2089074.468      -1489265.034
10 0 59598  11130.000000  0      -6529778.406       2119489.797      -1706227.122
10 0 59598  11160.000000  0      -6460797.693       2147478.382      -1921453.996
10 0 59598  11190.000000  0      -6385179.151       2172983.232      -2134727.199
10 0 59598  11220.000000  0      -6303011.591       2195950.260      -2345830.370
10 0 59598  11250.000000  0      -6214390.652       2216328.364      -2554549.467
10 0 59598  11280.000000  0      -6119418.683       2234069.509      -2760672.980
10 0 59598  11310.000000  0      -6018204.615       2249128.795      -2963992.149
10 0 59598  11340.000000  0      -5910863.826       2261464.534      -3164301.170
10 0 59598  11370.000000  0      -5797518.005       2271038.312      -3361397.407
10 0 59598  11400.000000  0      -5678295.001       2277815.052      -3555081.587
10 0 59598  11430.000000  0      -5553328.671       2281763.071      -3745158.000
10 0 59598  11460.000000  0      -5422758.729       2282854.139      -3931434.694
10 0 59598  11490.000000  0      -5286730.571       2281063.523      -4113723.662
10 0 59598  11520.000000  0      -5145395.114       2276370.037      -4291841.028
10 0 59598  11550.000000  0      -4998908.618       2268756.079      -4465607.224
10 0 59598  11580.000000  0      -4847432.504       2258207.671      -4634847.164
10 0 59598  11610.000000  0      -4691133.174       2244714.492      -4799390.414
10 0 59598  11640.000000  0      -4530181.816       2228269.902      -4959071.353
10 0 59598  11670.000000  0      -4364754.221       2208870.971      -5113729.332
10 0 59598  11700.000000  0      -4195030.578       2186518.493      -5263208.824
10 0 59598  11730.000000  0      -4021195.279       2161217.008      -5407359.573
10 0 59598  11760.000000  0      -3843436.719       2132974.805      -5546036.734
10 0 59598  11790.000000  0      -3661947.083       2101803.935      -5679101.012
10 0 59598  11820.000000  0      -3476922.148       2067720.208      -5806418.792
10 0 59598  11850.000000  0      -3288561.059       2030743.195      -5927862.263
10 0 59598  11880.000000  0      -3097066.123       1990896.213      -6043309.543
10 0 59598  11910.000000  0      -2902642.589       1948206.321      -6152644.790
10 0 59598  11940.000000  0      -2705498.421       1902704.301      -6255758.310
10 0 59598  11970.000000  0      -2505844.082       1854424.638      -6352546.658
10 0 59598  12000.000000  0      -2303892.303       1803405.491      -6442912.727
10 0 59598  12030.000000  0      -2099857.865       1749688.670      -6526765.837
10 0 59598  12060.000000  0      -1893957.374       1693319.598      -6604021.813
10 0 59598  12090.000000  0      -1686409.040       1634347.277      -6674603.067
10 0 59598  12120.000000  0      -1477432.448       1572824.245      -6738438.666
10 0 59598  12150.000000  0      -1267248.330       1508806.528      -6795464.405
10 0 59598  12180.000000  0      -1056078.340       1442353.592      -6845622.858
10 0 59598  12210.000000  0       -844144.819       1373528.290      -6888863.429
10 0 59598  12240.000000  0       -631670.575       1302396.801      -6925142.401
10 0 59598  12270.000000  0       -418878.657       1229028.574      -6954422.973
10 0 59598  12300.000000  0       -205992.128       1153496.260      -6976675.296
10 0 59598  12330.000000  0          6766.156       1075875.643      -6991876.510
10 0 59598  12360.000000  0        219173.779        996245.570      -7000010.771
10 0 59598  12390.000000  0        431008.990        914687.871      -7001069.268
10 0 59598  12420.000000  0        642050.936        831287.278      -6995050.236
10 0 59598  12450.000000  0        852079.888        746131.336      -6981958.958
10 0 59598  12480.000000  0       1060877.461        659310.321      -6961807.759
10 0 59598  12510.000000  0       1268226.840        570917.142      -6934616.001
10 0 59598  12540.000000  0       1473912.994        481047.245      -6900410.061
10 0 59598  12570.000000  0       1677722.896        389798.516      -6859223.319
10 0 59598  12600.000000  0       1879445.739        297271.177      -6811096.123
10 0 59598  12630.000000  0       2078873.147        203567.684      -6756075.767
10 0 59598  12660.000000  0       2275799.392        108792.615      -6694216.447
10 0 59598  12690.000000  0       2470021.605         13052.558      -6625579.221
10 0 59598  12720.000000  0       2661339.987        -83544.000      -6550231.955
10 0 59598  12750.000000  0       2849558.012       -180886.799      -6468249.256
10 0 59598  12780.000000  0       3034482.626       -278863.926      -6379712.416
10 0 59598  12810.000000  0       3215924.444       -377361.934      -6284709.331
10 0 59598  12840.000000  0       3393697.941       -476265.976      -6183334.434
10 0 59598  12870.000000  0       3567621.649       -575459.925      -6075688.607
10 0 59598  12900.000000  0       3737518.338       -674826.511      -5961879.098
10 0 59598  12930.000000  0       3903215.206       -774247.450      -5842019.426
10 0 59598  12960.000000  0       4064544.061       -873603.589      -5716229.282
10 0 59598  12990.000000  0       4221341.497       -972775.038      -5584634.419
10 0 59598  13020.000000  0       4373449.070      -1071641.320      -5447366.538
10 0 59598  13050.000000  0       4520713.463      -1170081.508      -5304563.164
10 0 59598  13080.000000  0       4662986.647      -1267974.372      -5156367.523
10 0 59598  13110.000000  0       4800126.041      -1365198.523      -5002928.401
10 0 59598  13140.000000  0       4931994.660      -1461632.561      -4844400.014
10 0 59598  13170.000000  0       5058461.268      -1557155.227      -4680941.855
10 0 59598  13200.000000  0       5179400.513      -1651645.547      -4512718.547
10 0 59598  13230.000000  0       5294693.064      -1744982.985      -4339899.684
10 0 59598  13260.000000  0       5404225.741      -1837047.594      -4162659.666
10 0 59598  13290.000000  0       5507891.638      -1927720.168      -3981177.534
10 0 59598  13320.000000  0       5605590.238      -2016882.392      -3795636.789
10 0 59598  13350.000000  0       5697227.524      -2104416.995      -3606225.217
10 0 59598  13380.000000  0       5782716.080      -2190207.904      -3413134.699
10 0 59598  13410.000000  0       5861975.187      -2274140.390      -3216561.020
10 0 59598  13440.000000  0       5934930.910      -2356101.224      -3016703.675
10 0 59598  13470.000000  0       6001516.179      -2435978.821      -2813765.665
10 0 59598  13500.000000  0       6061670.861      -2513663.398      -2607953.292
10 0 59598  13530.000000  0       6115341.825      -2589047.111      -2399475.948
10 0 59598  13560.000000  0       6162482.994      -2662024.207      -2188545.900
10 0 59598  13590.000000  0       6203055.398      -2732491.162      -1975378.078
10 0 59598  13620.000000  0       6237027.215      -2800346.830      -1760189.849
10 0 59598  13650.000000  0       6264373.802      -2865492.579      -1543200.794
10 0 59598  13680.000000  0       6285077.724      -2927832.427      -1324632.477
10 0 59598  13710.000000  0       6299128.763      -2987273.184      -1104708.215
10 0 59598  13740.000000  0       6306523.931      -3043724.576       -883652.843
10 0 59598  13770.000000  0       6307267.464      -3097099.383       -661692.475
10 0 59598  13800.000000  0       6301370.811      -3147313.555       -439054.269
10 0 59598  13830.000000  0       6288852.617      -3194286.341       -215966.187
10 0 59598  13860.000000  0       6269738.698      -3237940.404          7343.246
10 0 59598  13890.000000  0       6244062.000      -3278201.938        230645.186
10 0 59598  13920.000000  0       6211862.566      -3315000.782        453710.710
10 0 59598  13950.000000  0       6173187.478      -3348270.522        676311.066
10 0 59598  13980.000000  0       6128090.796      -3377948.600        898217.921
10 0 59598  14010.000000  0       6076633.485      -3403976.403       1119203.605
10 0 59598  14040.000000  0       6018883.337      -3426299.362       1339041.356
10 0 59598  14070.000000  0       5954914.875      -3444867.034       1557505.564
10 0 59598  14100.000000  0       5884809.263      -3459633.182       1774372.006
10 0 59598  14130.000000  0       5808654.195      -3470555.859       1989418.085
10 0 59598  14160.000000  0       5726543.794      -3477597.475       2202423.067
10 0 59598  14190.000000  0       5638578.492      -3480724.870       2413168.313
10 0 59598  14220.000000  0       5544864.904      -3479909.372       2621437.523
10 0 59598  14250.000000  0       5445515.695      -3475126.852       2827016.958
10 0 59598  14280.000000  0       5340649.437      -3466357.771       3029695.674
10 0 59598  14310.000000  0       5230390.459      -3453587.224       3229265.738
10 0 59598  14340.000000  0       5114868.701      -3436804.975       3425522.448
10 0 59598  14370.000000  0       4994219.550      -3416005.492       3618264.543
99
